GEOEYE 1                
1 33331U 08042A   26177.16921250  .00001365  00000+0  26584-3 0  9998
2 33331  98.1333 250.9868 0005296  43.6851 316.4770 14.64634006951466
GOES 14                 
1 35491U 09033A   26177.02629251 -.00000312  00000+0  00000+0 0  9992
2 35491   1.7132  82.9457 0002226  18.3992 318.9543  1.00108583  6675
GAOFEN-8                
1 40701U 15030A   26177.21344610  .00013589  00000+0  27753-3 0  9997
2 40701  97.6906  11.1274 0009419 155.5240 204.6457 15.46257408612843
GAOFEN-9 01             
1 40894U 15047A   26177.23951279  .00000983  00000+0  12668-3 0  9998
2 40894  97.6271 212.5228 0028829 109.4753 250.9580 14.82900162581533
GAOFEN-4                
1 41194U 15083A   26176.90227766 -.00000324  00000+0  00000+0 0  9995
2 41194   0.3805  83.9226 0004051 113.8387 146.7998  1.00271078 38616
GOES 16                 
1 41866U 16071A   26177.22997073 -.00000080  00000+0  00000+0 0  9999
2 41866   0.3642  85.5308 0000560   4.8068 162.1132  1.00272055 35194
GAOFEN-5 01             
1 43461U 18043A   26177.17289363  .00000339  00000+0  79857-4 0  9990
2 43461  98.4574 148.9479 0002918  67.8367 292.3142 14.60611347433002
GAOFEN-6                
1 43484U 18048A   26176.81301529  .00000286  00000+0  48573-4 0  9991
2 43484  98.0567 239.4730 0011702 138.2342 221.9762 14.76423510434667
GEO-KOMPSAT-2A          
1 43823U 18100A   26176.83556382 -.00000333  00000+0  00000+0 0  9990
2 43823   0.0442 157.6311 0002457 293.4522 251.9424  1.00270592 27711
GAOFEN-3 03             
1 52200U 22035A   26177.24881659 -.00000003  00000+0  12223-4 0  9994
2 52200  98.4064 185.6978 0001518 100.3609 259.7752 14.42215801222157
